STARLINK-31124          
1 58674U 23211H   26068.46815394  .00007182  00000+0  27033-3 0  9996
2 58674  43.0037  86.2802 0002359 269.4061  90.6521 15.27571582122430
NUSAT-50 (NANCY ROMAN)  
1 60493U 24149AB  26068.80227738  .00012094  00000+0  42252-3 0  9994
2 60493  97.3817 150.7693 0002523 238.0469 122.0527 15.29713355 86930
